ISS (ZARYA)             
1 25544U 98067A   26041.85871805  .00010337  00000+0  19842-3 0  9995
2 25544  51.6314 204.9914 0011071  85.6051 274.6202 15.48531925552172
CSS (TIANHE)            
1 48274U 21035A   26041.89257101  .00022594  00000+0  28056-3 0  9997
2 48274  41.4682  11.0651 0004356  54.5327 305.5918 15.59457517273428
ISS (NAUKA)             
1 49044U 21066A   26041.85871805  .00010337  00000+0  19842-3 0  9991
2 49044  51.6314 204.9914 0011071  85.6051 274.6202 15.48531925230446
FREGAT DEB              
1 49271U 11037PF  26041.09846007  .00041933  00000+0  68949-1 0  9998
2 49271  51.6599  23.3386 0932501 356.0447   3.3394 12.38292170209271
CSS (WENTIAN)           
1 53239U 22085A   26041.89257101  .00022594  00000+0  28056-3 0  9990
2 53239  41.4682  11.0651 0004356  54.5327 305.5918 15.59457517173840
CSS (MENGTIAN)          
1 54216U 22143A   26041.89257101  .00022594  00000+0  28056-3 0  9991
2 54216  41.4682  11.0651 0004356  54.5327 305.5918 15.59457517158647
PROGRESS-MS 31          
1 64751U 25146A   26041.85871805  .00010337  00000+0  19842-3 0  9996
2 64751  51.6314 204.9914 0011071  85.6051 274.6202 15.48531925  6753
TIANZHOU-9              
1 64786U 25149A   26041.89257101  .00022594  00000+0  28056-3 0  9993
2 64786  41.4682  11.0651 0004356  54.5327 305.5918 15.59457517255301
DRAGON CRS-33           
1 65304U 25186A   26041.85871805  .00010337  00000+0  19842-3 0  9995
2 65304  51.6314 204.9914 0011071  85.6051 274.6202 15.48531925   112
PROGRESS-MS 32          
1 65586U 25204A   26041.85871805  .00010337  00000+0  19842-3 0  9998
2 65586  51.6314 204.9914 0011071  85.6051 274.6202 15.48531925   271
CYGNUS NG-23            
1 65616U 25208A   26041.85871805  .00010337  00000+0  19842-3 0  9996
2 65616  51.6314 204.9914 0011071  85.6051 274.6202 15.48531925   220
ISS OBJECT XK           
1 65731U 98067XK  26041.67618334  .00285023  00000+0  11166-2 0  9999
2 65731  51.6219 189.4653 0004323 297.1516  62.9047 15.85635055 22585
